LEMUR-2-AMANDA-SVANTE   
1 48269U 21034B   26068.77637527  .00030872  00000+0  11134-2 0  9996
2 48269  97.5829 144.8625 0002703 205.4721 154.6385 15.28469003265849
STARLINK-32181          
1 60349U 24136W   26068.32722571 -.00000766  00000+0 -13738-4 0  9995
2 60349  53.1610  77.0184 0001207  95.4758 264.6381 15.30194267 89617
